CCSDS_OMM_VERS = 2.0
CREATION_DATE  = 
ORIGINATOR     = 

OBJECT_NAME    = CZ-2C R/B
OBJECT_ID      = 2022-132E
CENTER_NAME    = EARTH
REF_FRAME      = TEME
TIME_SYSTEM    = UTC
MEAN_ELEMENT_THEORY = SGP/SGP4

EPOCH          = 2025-12-28T13:30:09.383040
MEAN_MOTION    = 15.55817566
ECCENTRICITY   = .00203472
INCLINATION    = 97.2953
RA_OF_ASC_NODE = 359.0750
ARG_OF_PERICENTER = 2.4504
MEAN_ANOMALY   = 357.6847

EPHEMERIS_TYPE = 0
CLASSIFICATION_TYPE = U
NORAD_CAT_ID   = 54039
ELEMENT_SET_NO = 999
REV_AT_EPOCH   = 17929
BSTAR          = .50689128E-3
MEAN_MOTION_DOT = .35335E-3
MEAN_MOTION_DDOT = 0

CCSDS_OMM_VERS = 2.0
CREATION_DATE  = 
ORIGINATOR     = 

OBJECT_NAME    = GSLV R/B
OBJECT_ID      = 2022-138AN
CENTER_NAME    = EARTH
REF_FRAME      = TEME
TIME_SYSTEM    = UTC
MEAN_ELEMENT_THEORY = SGP/SGP4

EPOCH          = 2025-12-28T13:45:19.072224
MEAN_MOTION    = 14.96213477
ECCENTRICITY   = .00237294
INCLINATION    = 87.3821
RA_OF_ASC_NODE = 190.1705
ARG_OF_PERICENTER = 53.8012
MEAN_ANOMALY   = 306.5409

EPHEMERIS_TYPE = 0
CLASSIFICATION_TYPE = U
NORAD_CAT_ID   = 54149
ELEMENT_SET_NO = 999
REV_AT_EPOCH   = 17329
BSTAR          = .26534643E-3
MEAN_MOTION_DOT = .3036E-4
MEAN_MOTION_DDOT = 0

CCSDS_OMM_VERS = 2.0
CREATION_DATE  = 
ORIGINATOR     = 

OBJECT_NAME    = XRISM
OBJECT_ID      = 2023-137A
CENTER_NAME    = EARTH
REF_FRAME      = TEME
TIME_SYSTEM    = UTC
MEAN_ELEMENT_THEORY = SGP/SGP4

EPOCH          = 2025-12-28T05:34:02.030016
MEAN_MOTION    = 15.10507022
ECCENTRICITY   = .0007581
INCLINATION    = 31.0033
RA_OF_ASC_NODE = 25.5095
ARG_OF_PERICENTER = 41.6871
MEAN_ANOMALY   = 318.4344

EPHEMERIS_TYPE = 0
CLASSIFICATION_TYPE = U
NORAD_CAT_ID   = 57800
ELEMENT_SET_NO = 999
REV_AT_EPOCH   = 12697
BSTAR          = .47051E-3
MEAN_MOTION_DOT = .8046E-4
MEAN_MOTION_DDOT = 0

CCSDS_OMM_VERS = 2.0
CREATION_DATE  = 
ORIGINATOR     = 

OBJECT_NAME    = ACS3
OBJECT_ID      = 2024-077B
CENTER_NAME    = EARTH
REF_FRAME      = TEME
TIME_SYSTEM    = UTC
MEAN_ELEMENT_THEORY = SGP/SGP4

EPOCH          = 2025-12-28T15:18:04.955040
MEAN_MOTION    = 13.86251226
ECCENTRICITY   = .00729828
INCLINATION    = 97.2563
RA_OF_ASC_NODE = 314.6916
ARG_OF_PERICENTER = 298.7732
MEAN_ANOMALY   = 60.6113

EPHEMERIS_TYPE = 0
CLASSIFICATION_TYPE = U
NORAD_CAT_ID   = 59588
ELEMENT_SET_NO = 999
REV_AT_EPOCH   = 8434
BSTAR          = .23736327E-1
MEAN_MOTION_DOT = .28068E-3
MEAN_MOTION_DDOT = 0

CCSDS_OMM_VERS = 2.0
CREATION_DATE  = 
ORIGINATOR     = 

OBJECT_NAME    = SZ-21 MODULE
OBJECT_ID      = 2025-246C
CENTER_NAME    = EARTH
REF_FRAME      = TEME
TIME_SYSTEM    = UTC
MEAN_ELEMENT_THEORY = SGP/SGP4

EPOCH          = 2025-12-28T04:40:43.839840
MEAN_MOTION    = 15.63334687
ECCENTRICITY   = .0003889
INCLINATION    = 41.4762
RA_OF_ASC_NODE = 281.7105
ARG_OF_PERICENTER = 344.6689
MEAN_ANOMALY   = 15.4033

EPHEMERIS_TYPE = 0
CLASSIFICATION_TYPE = U
NORAD_CAT_ID   = 66515
ELEMENT_SET_NO = 999
REV_AT_EPOCH   = 686
BSTAR          = .37385E-3
MEAN_MOTION_DOT = .35208E-3
MEAN_MOTION_DDOT = 0

