CZ-2C R/B               
1 54039U 22132E   25362.56260860  .00035335  00000+0  50689-3 0  9991
2 54039  97.2953 359.0750 0020347   2.4504 357.6847 15.55817566179295
GSLV R/B                
1 54149U 22138AN  25362.57313741  .00003036  00000+0  26535-3 0  9993
2 54149  87.3821 190.1705 0023729  53.8012 306.5409 14.96213477173292
XRISM                   
1 57800U 23137A   25362.23196794  .00008046  00000+0  47051-3 0  9992
2 57800  31.0033  25.5095 0007581  41.6871 318.4344 15.10507022126971
ACS3                    
1 59588U 24077B   25362.63755735  .00028068  00000+0  23736-1 0  9999
2 59588  97.2563 314.6916 0072982 298.7732  60.6113 13.86251226 84347
SZ-21 MODULE            
1 66515U 25246C   25362.19495185  .00035208  00000+0  37385-3 0  9998
2 66515  41.4762 281.7105 0003889 344.6689  15.4033 15.63334687  6863
